{"fetched_at":"2026-03-29T16:36:15Z","count":15609,"tles":[{"name":"KUIPER-00041","line1":"1 64502U 25134C   26087.59271914  .00004327  00000+0  59643-3 0  9998","line2":"2 64502  51.8987 161.9937 0001026  42.8168 317.2874 14.79919760 42697","category":"Other"}]}