{
  "norad_id": 64502,
  "name": "KUIPER-00041",
  "history": [
    {
      "epoch": "2026-03-28T14:13:30.933696Z",
      "apogee_km": 630.2964163857059,
      "perigee_km": 628.8584333857207,
      "latitude_deg": -4.368332218482178e-06,
      "longitude_deg": 122.60385974385096,
      "height_km": 629.7957638111137,
      "semi_major_axis_km": 7007.714424885713,
      "eccentricity": 0.0001026,
      "inclination_deg": 51.8987,
      "raan_deg": 161.9937,
      "arg_perigee_deg": 42.8168,
      "mean_anomaly_deg": 317.2874,
      "mean_motion_rev_day": 14.7991976
    }
  ]
}